STARLINK-1680
1 46558U 20070AC  26092.83335647  .00365511  00000+0  13860-2 0  9995
2 46558  53.0382 348.2222 0004619 138.3659  77.2627 15.86143368  5921
